[{"OBJECT_NAME":"STARLINK-5771","OBJECT_ID":"2023-042AP","EPOCH":"2026-03-09T07:43:44.707008","MEAN_MOTION":15.03041905,"ECCENTRICITY":0.00018472,"INCLINATION":43.0045,"RA_OF_ASC_NODE":45.2113,"ARG_OF_PERICENTER":257.6913,"MEAN_ANOMALY":102.3723,"EPHEMERIS_TYPE":0,"CLASSIFICATION_TYPE":"U","NORAD_CAT_ID":56023,"ELEMENT_SET_NO":999,"REV_AT_EPOCH":16300,"BSTAR":0.0045779413,"MEAN_MOTION_DOT":0.00063039,"MEAN_MOTION_DDOT":0},{"OBJECT_NAME":"EINSTEIN PROBE","OBJECT_ID":"2024-007A","EPOCH":"2026-03-09T14:28:05.763072","MEAN_MOTION":15.01336938,"ECCENTRICITY":0.0009522,"INCLINATION":28.998,"RA_OF_ASC_NODE":140.909,"ARG_OF_PERICENTER":248.3814,"MEAN_ANOMALY":111.577,"EPHEMERIS_TYPE":0,"CLASSIFICATION_TYPE":"U","NORAD_CAT_ID":58753,"ELEMENT_SET_NO":999,"REV_AT_EPOCH":11858,"BSTAR":0.00031977,"MEAN_MOTION_DOT":4.372e-5,"MEAN_MOTION_DDOT":0}]
