STARLINK-5771           
1 56023U 23042AP  26068.32204522  .00063039  00000+0  45779-2 0  9993
2 56023  43.0045  45.2113 0001847 257.6913 102.3723 15.03041905163009
EINSTEIN PROBE          
1 58753U 24007A   26068.60284448  .00004372  00000+0  31977-3 0  9994
2 58753  28.9980 140.9090 0009522 248.3814 111.5770 15.01336938118581
